$$SOE
2459580.500000000, A.D. 2022-Jan-01 00:00:00.0000, -3.580342733639078E+08, -3.169871719930684E+07, 4.341867876116797E+07,
2459587.500000000, A.D. 2022-Jan-08 00:00:00.0000, -3.559364661684781E+08, -4.302689476724252E+07, 4.422257459091727E+07,
2459594.500000000, A.D. 2022-Jan-15 00:00:00.0000, -3.534722008689841E+08, -5.431075011859860E+07, 4.498093390612577E+07,
2459601.500000000, A.D. 2022-Jan-22 00:00:00.0000, -3.506415620014963E+08, -6.553828895260519E+07, 4.569266379840181E+07,
2459608.500000000, A.D. 2022-Jan-29 00:00:00.0000, -3.474450193510171E+08, -7.669741119458479E+07, 4.635670562274256E+07,
2459615.500000000, A.D. 2022-Feb-05 00:00:00.0000, -3.438834401334631E+08, -8.777592307670014E+07, 4.697203732062477E+07,
2459622.500000000, A.D. 2022-Feb-12 00:00:00.0000, -3.399580988081627E+08, -9.876155105556524E+07, 4.753767550657073E+07,
2459629.500000000, A.D. 2022-Feb-19 00:00:00.0000, -3.356706857947902E+08, -1.096419552105442E+08, 4.805267762949437E+07,
2459636.500000000, A.D. 2022-Feb-26 00:00:00.0000, -3.310233163499218E+08, -1.204047428575111E+08, 4.851614426469515E+07,
2459643.500000000, A.D. 2022-Mar-05 00:00:00.0000, -3.260185393876877E+08, -1.310374830043555E+08, 4.892722146564320E+07,
2459650.500000000, A.D. 2022-Mar-12 00:00:00.0000, -3.206593459634467E+08, -1.415277217168767E+08, 4.928510314320595E+07,
2459657.500000000, A.D. 2022-Mar-19 00:00:00.0000, -3.149491772828410E+08, -1.518629983654066E+08, 4.958903345969371E+07,
2459664.500000000, A.D. 2022-Mar-26 00:00:00.0000, -3.088919321428956E+08, -1.620308627566727E+08, 4.983830922574349E+07,
2459671.500000000, A.D. 2022-Apr-02 00:00:00.0000, -3.024919736688696E+08, -1.720188932055084E+08, 5.003228228053174E+07,
2459678.500000000, A.D. 2022-Apr-09 00:00:00.0000, -2.957541350113820E+08, -1.818147155352166E+08, 5.017036182326522E+07,
2459685.500000000, A.D. 2022-Apr-16 00:00:00.0000, -2.886837235845311E+08, -1.914060223358412E+08, 5.025201670897417E+07,
2459692.500000000, A.D. 2022-Apr-23 00:00:00.0000, -2.812865250472135E+08, -2.007805913685406E+08, 5.027677790390657E+07,
2459699.500000000, A.D. 2022-Apr-30 00:00:00.0000, -2.735688088254752E+08, -2.099263053273448E+08, 5.024424107652244E+07,
2459706.500000000, A.D. 2022-May-07 00:00:00.0000, -2.655373320400203E+08, -2.188311748950324E+08, 5.015406886908282E+07,
2459713.500000000, A.D. 2022-May-14 00:00:00.0000, -2.571993403772082E+08, -2.274833620124890E+08, 5.000599295799086E+07,
2459720.500000000, A.D. 2022-May-21 00:00:00.0000, -2.485625678616768E+08, -2.358712025527762E+08, 4.979981613816497E+07,
2459727.500000000, A.D. 2022-May-28 00:00:00.0000, -2.396352359375181E+08, -2.439832293027689E+08, 4.953541438372037E+07,
2459734.500000000, A.D. 2022-Jun-04 00:00:00.0000, -2.304260515132405E+08, -2.518081955047701E+08, 4.921273882101610E+07,
2459741.500000000, A.D. 2022-Jun-11 00:00:00.0000, -2.209442037648795E+08, -2.593350988895702E+08, 4.883181758879561E+07,
2459748.500000000, A.D. 2022-Jun-18 00:00:00.0000, -2.111993596035795E+08, -2.665532061123053E+08, 4.839275757090411E+07,
2459755.500000000, A.D. 2022-Jun-25 00:00:00.0000, -2.012016577270158E+08, -2.734520775393987E+08, 4.789574598332201E+07,
2459762.500000000, A.D. 2022-Jul-02 00:00:00.0000, -1.909617010730231E+08, -2.800215923597047E+08, 4.734105178418311E+07,
2459769.500000000, A.D. 2022-Jul-09 00:00:00.0000, -1.804905472426803E+08, -2.862519737439710E+08, 4.672902687151429E+07,
2459776.500000000, A.D. 2022-Jul-16 00:00:00.0000, -1.697996969119958E+08, -2.921338128647116E+08, 4.606010714838180E+07,
2459783.500000000, A.D. 2022-Jul-23 00:00:00.0000, -1.589010824011357E+08, -2.976580915873813E+08, 4.533481364958435E+07,
2459790.500000000, A.D. 2022-Jul-30 00:00:00.0000, -1.478070562951124E+08, -3.028162070719816E+08, 4.455375343475573E+07,
2459797.500000000, A.D. 2022-Aug-06 00:00:00.0000, -1.365303765062476E+08, -3.075999975213619E+08, 4.371761995912673E+07,
2459804.500000000, A.D. 2022-Aug-13 00:00:00.0000, -1.250841886023143E+08, -3.120017662021374E+08, 4.282719321226177E+07,
2459811.500000000, A.D. 2022-Aug-20 00:00:00.0000, -1.134820069803260E+08, -3.160143041168655E+08, 4.188333971777850E+07,
2459818.500000000, A.D. 2022-Aug-27 00:00:00.0000, -1.017376948385568E+08, -3.196309119261981E+08, 4.088701231914178E+07,
2459825.500000000, A.D. 2022-Sep-03 00:00:00.0000, -8.986544272968751E+07, -3.228454211024747E+08, 3.983924971110758E+07,
2459832.500000000, A.D. 2022-Sep-10 00:00:00.0000, -7.787974564601646E+07, -3.256522141634868E+08, 3.874117570312837E+07,
2459839.500000000, A.D. 2022-Sep-17 00:00:00.0000, -6.579537866040761E+07, -3.280462438648163E+08, 3.759399820668137E+07,
2459846.500000000, A.D. 2022-Sep-24 00:00:00.0000, -5.362737112894116E+07, -3.300230512818304E+08, 3.639900793375595E+07,
2459853.500000000, A.D. 2022-Oct-01 00:00:00.0000, -4.139097929392981E+07, -3.315787826868030E+08, 3.515757678105079E+07,
2459860.500000000, A.D. 2022-Oct-08 00:00:00.0000, -2.910165696959198E+07, -3.327102045865671E+08, 3.387115590488070E+07,
2459867.500000000, A.D. 2022-Oct-15 00:00:00.0000, -1.677502534236353E+07, -3.334147156144482E+08, 3.254127367139758E+07,
2459874.500000000, A.D. 2022-Oct-22 00:00:00.0000, -4.426844176907144E+06, -3.336903568591213E+08, 3.116953354709277E+07,
2459881.500000000, A.D. 2022-Oct-29 00:00:00.0000, 7.927017952790711E+06, -3.335358231326191E+08, 2.975761149298048E+07,
2459888.500000000, A.D. 2022-Nov-05 00:00:00.0000, 2.027061638023292E+07, -3.329504723592030E+08, 2.830725290130715E+07,
2459895.500000000, A.D. 2022-Nov-12 00:00:00.0000, 3.258796391062185E+07, -3.319343317523423E+08, 2.682026936826754E+07,
2459902.500000000, A.D. 2022-Nov-19 00:00:00.0000, 4.486306437001992E+07, -3.304881016792647E+08, 2.529853530213834E+07,
2459909.500000000, A.D. 2022-Nov-26 00:00:00.0000, 5.707994625163084E+07, -3.286131575681061E+08, 2.374398432340027E+07,
2459916.500000000, A.D. 2022-Dec-03 00:00:00.0000, 6.922269646799889E+07, -3.263115498380833E+08, 2.215860545494121E+07,
2459923.500000000, A.D. 2022-Dec-10 00:00:00.0000, 8.127549409257975E+07, -3.235860018110389E+08, 2.054443911426796E+07,
2459930.500000000, A.D. 2022-Dec-17 00:00:00.0000, 9.322264395456302E+07, -3.204399056146227E+08, 1.890357291839562E+07,
2459937.500000000, A.D. 2022-Dec-24 00:00:00.0000, 1.050486100422464E+08, -3.168773161427636E+08, 1.723813730293240E+07,
2459944.500000000, A.D. 2022-Dec-31 00:00:00.0000, 1.167380489249993E+08, -3.129029429877511E+08, 1.555030095150051E+07,
2459951.500000000, A.D. 2023-Jan-07 00:00:00.0000, 1.282758431707731E+08, -3.085221394265428E+08, 1.384226612573092E+07,
2459958.500000000, A.D. 2023-Jan-14 00:00:00.0000, 1.396471326445437E+08, -3.037408880259671E+08, 1.211626414055572E+07,
2459965.500000000, A.D. 2023-Jan-21 00:00:00.0000, 1.508373428957109E+08, -2.985657861087225E+08, 1.037455080762520E+07,
2459972.500000000, A.D. 2023-Jan-28 00:00:00.0000, 1.618322141624743E+08, -2.930040313527869E+08, 8.619401516867891E+06,
2459979.500000000, A.D. 2023-Feb-04 00:00:00.0000, 1.726178306545236E+08, -2.870634045854667E+08, 6.853106245385796E+06,
2459986.500000000, A.D. 2023-Feb-11 00:00:00.0000, 1.831806481981338E+08, -2.807522500645876E+08, 5.077964665065229E+06,
2459993.500000000, A.D. 2023-Feb-18 00:00:00.0000, 1.935075200704147E+08, -2.740794541774222E+08, 3.296281309644476E+06,
2460000.500000000, A.D. 2023-Feb-25 00:00:00.0000, 2.035857211871984E+08, -2.670544228353490E+08, 1.510360785811022E+06,
2460007.500000000, A.D. 2023-Mar-04 00:00:00.0000, 2.134029706601239E+08, -2.596870576697989E+08, -2.774969581122845E+05,
2460014.500000000, A.D. 2023-Mar-11 00:00:00.0000, 2.229474526760184E+08, -2.519877311595827E+08, -2.065001287927032E+06,
2460021.500000000, A.D. 2023-Mar-18 00:00:00.0000, 2.322078356815059E+08, -2.439672608727987E+08, -3.849875452745318E+06,
2460028.500000000, A.D. 2023-Mar-25 00:00:00.0000, 2.411732900263337E+08, -2.356368830059086E+08, -5.629861071734294E+06,
2460035.500000000, A.D. 2023-Apr-01 00:00:00.0000, 2.498335044566911E+08, -2.270082249665620E+08, -7.402722527508304E+06,
2460042.500000000, A.D. 2023-Apr-08 00:00:00.0000, 2.581787008227628E+08, -2.180932759208353E+08, -9.166251093125135E+06,
2460049.500000000, A.D. 2023-Apr-15 00:00:00.0000, 2.661996446509537E+08, -2.089043565557210E+08, -1.091826865431699E+07,
2460056.500000000, A.D. 2023-Apr-22 00:00:00.0000, 2.738876533865396E+08, -1.994540912460115E+08, -1.265663142986986E+07,
2460063.500000000, A.D. 2023-Apr-29 00:00:00.0000, 2.812346050531221E+08, -1.897553805055823E+08, -1.437923374581219E+07,
2460070.500000000, A.D. 2023-May-06 00:00:00.0000, 2.882329455939283E+08, -1.798213720742300E+08, -1.608401154672708E+07,
2460077.500000000, A.D. 2023-May-13 00:00:00.0000, 2.948756939531052E+08, -1.696654316621694E+08, -1.776894561970821E+07,
2460084.500000000, A.D. 2023-May-20 00:00:00.0000, 3.011564451748332E+08, -1.593011139654508E+08, -1.943206458643905E+07,
2460091.500000000, A.D. 2023-May-27 00:00:00.0000, 3.070693717661959E+08, -1.487421340969852E+08, -2.107144767909101E+07,
2460098.500000000, A.D. 2023-Jun-03 00:00:00.0000, 3.126092234420992E+08, -1.380023395153883E+08, -2.268522730035558E+07,
2460105.500000000, A.D. 2023-Jun-10 00:00:00.0000, 3.177713253437216E+08, -1.270956825665224E+08, -2.427159136965654E+07,
2460112.500000000, A.D. 2023-Jun-17 00:00:00.0000, 3.225515748916516E+08, -1.160361937912591E+08, -2.582878546884046E+07,
2460119.500000000, A.D. 2023-Jun-24 00:00:00.0000, 3.269464376682999E+08, -1.048379560266965E+08, -2.735511481348591E+07,
2460126.500000000, A.D. 2023-Jul-01 00:00:00.0000, 3.309529426643509E+08, -9.351507854377736E+07, -2.884894600757596E+07,
2460133.500000000, A.D. 2023-Jul-08 00:00:00.0000, 3.345686753075410E+08, -8.208167046539447E+07, -3.030870836455740E+07,
2460140.500000000, A.D. 2023-Jul-15 00:00:00.0000, 3.377917670886909E+08, -7.055181635761684E+07, -3.173289491431895E+07,
2460147.500000000, A.D. 2023-Jul-22 00:00:00.0000, 3.406208853914446E+08, -5.893955507856658E+07, -3.312006350943263E+07,
$$EOE